{"type": "FeatureCollection", "features": [ {"type": "Feature", "properties": {"norad_id": 44476, "name": "INTELSAT 39 (IS-39)", "group": "intelsat", "lat": -0.0394756389482799, "lon": -56.67895309998171, "alt_km": 35787.32605085307, "timestamp": "2025-12-25T09:48:51.954132+00:00", "meta": {"OBJECT_NAME": "INTELSAT 39 (IS-39)", "OBJECT_ID": "2019-049B", "EPOCH": "2025-12-24T23:39:55.356768", "MEAN_MOTION": 1.0027611, "ECCENTRICITY": 6.2e-05, "INCLINATION": 0.0209, "RA_OF_ASC_NODE": 14.9454, "ARG_OF_PERICENTER": 127.1893, "MEAN_ANOMALY": 8.5314, "EPHEMERIS_TYPE": 0, "CLASSIFICATION_TYPE": "U", "NORAD_CAT_ID": 44476, "ELEMENT_SET_NO": 999, "REV_AT_EPOCH": 2338, "BSTAR": 0, "MEAN_MOTION_DOT": 0, "MEAN_MOTION_DDOT": 0}, "tle": {"line1": "1 44476U 19049B   25358.98605737  .00000000  00000+0  00000+0 0  9994", "line2": "2 44476   0.0209  14.9454 0000620 127.1893   8.5314  1.00276110 23389"}}, "geometry": {"type": "Point", "coordinates": [-56.67895309998171, -0.0394756389482799]}}, {"type": "Feature", "properties": {"norad_id": 46114, "name": "GALAXY 30 (G-30)", "group": "intelsat", "lat": 0.02783110152377854, "lon": 116.3656221466409, "alt_km": 35794.62107151733, "timestamp": "2025-12-25T09:48:51.954143+00:00", "meta": {"OBJECT_NAME": "GALAXY 30 (G-30)", "OBJECT_ID": "2020-056C", "EPOCH": "2025-12-25T04:27:55.525248", "MEAN_MOTION": 1.00271157, "ECCENTRICITY": 0.0002156, "INCLINATION": 0.0175, "RA_OF_ASC_NODE": 337.636, "ARG_OF_PERICENTER": 295.3076, "MEAN_ANOMALY": 122.9843, "EPHEMERIS_TYPE": 0, "CLASSIFICATION_TYPE": "U", "NORAD_CAT_ID": 46114, "ELEMENT_SET_NO": 999, "REV_AT_EPOCH": 1954, "BSTAR": 0, "MEAN_MOTION_DOT": 5.8e-07, "MEAN_MOTION_DDOT": 0}, "tle": {"line1": "1 46114U 20056C   25359.18605932  .00000058  00000+0  00000+0 0  9998", "line2": "2 46114   0.0175 337.6360 0002156 295.3076 122.9843  1.00271157 19547"}}, "geometry": {"type": "Point", "coordinates": [116.3656221466409, 0.02783110152377854]}}, {"type": "Feature", "properties": {"norad_id": 54026, "name": "GALAXY 33 (G-33)", "group": "intelsat", "lat": 0.01802241208598036, "lon": 108.38064938860771, "alt_km": 35792.28289438376, "timestamp": "2025-12-25T09:48:51.954154+00:00", "meta": {"OBJECT_NAME": "GALAXY 33 (G-33)", "OBJECT_ID": "2022-128A", "EPOCH": "2025-12-24T04:31:51.326400", "MEAN_MOTION": 1.00272122, "ECCENTRICITY": 0.0001643, "INCLINATION": 0.0126, "RA_OF_ASC_NODE": 315.9231, "ARG_OF_PERICENTER": 309.5058, "MEAN_ANOMALY": 122.5078, "EPHEMERIS_TYPE": 0, "CLASSIFICATION_TYPE": "U", "NORAD_CAT_ID": 54026, "ELEMENT_SET_NO": 999, "REV_AT_EPOCH": 1198, "BSTAR": 0, "MEAN_MOTION_DOT": 1e-06, "MEAN_MOTION_DDOT": 0}, "tle": {"line1": "1 54026U 22128A   25358.18878850  .00000100  00000+0  00000+0 0  9999", "line2": "2 54026   0.0126 315.9231 0001643 309.5058 122.5078  1.00272122 11987"}}, "geometry": {"type": "Point", "coordinates": [108.38064938860771, 0.01802241208598036]}}, {"type": "Feature", "properties": {"norad_id": 54027, "name": "GALAXY 34 (G-34)", "group": "intelsat", "lat": 0.03978438658886358, "lon": 112.40813276368229, "alt_km": 35793.15271558715, "timestamp": "2025-12-25T09:48:51.954165+00:00", "meta": {"OBJECT_NAME": "GALAXY 34 (G-34)", "OBJECT_ID": "2022-128B", "EPOCH": "2025-12-24T13:27:04.950144", "MEAN_MOTION": 1.00269797, "ECCENTRICITY": 0.00017445, "INCLINATION": 0.0224, "RA_OF_ASC_NODE": 357.4113, "ARG_OF_PERICENTER": 268.0239, "MEAN_ANOMALY": 260.7121, "EPHEMERIS_TYPE": 0, "CLASSIFICATION_TYPE": "U", "NORAD_CAT_ID": 54027, "ELEMENT_SET_NO": 999, "REV_AT_EPOCH": 1216, "BSTAR": 0, "MEAN_MOTION_DOT": 0, "MEAN_MOTION_DDOT": 0}, "tle": {"line1": "1 54027U 22128B   25358.56047396  .00000000  00000+0  00000+0 0  9994", "line2": "2 54027   0.0224 357.4113 0001744 268.0239 260.7121  1.00269797 12168"}}, "geometry": {"type": "Point", "coordinates": [112.40813276368229, 0.03978438658886358]}}, {"type": "Feature", "properties": {"norad_id": 54243, "name": "GALAXY 31 (G-31)", "group": "intelsat", "lat": 0.007026596749943431, "lon": 120.36890664268127, "alt_km": 35792.314671118984, "timestamp": "2025-12-25T09:48:51.954177+00:00", "meta": {"OBJECT_NAME": "GALAXY 31 (G-31)", "OBJECT_ID": "2022-153A", "EPOCH": "2025-12-24T14:14:12.035040", "MEAN_MOTION": 1.00271389, "ECCENTRICITY": 0.00015241, "INCLINATION": 0.025, "RA_OF_ASC_NODE": 248.306, "ARG_OF_PERICENTER": 34.989, "MEAN_ANOMALY": 262.6161, "EPHEMERIS_TYPE": 0, "CLASSIFICATION_TYPE": "U", "NORAD_CAT_ID": 54243, "ELEMENT_SET_NO": 999, "REV_AT_EPOCH": 538, "BSTAR": 0, "MEAN_MOTION_DOT": 3.4e-07, "MEAN_MOTION_DDOT": 0}, "tle": {"line1": "1 54243U 22153A   25358.59319485  .00000034  00000+0  00000+0 0  9993", "line2": "2 54243   0.0250 248.3060 0001524  34.9890 262.6161  1.00271389  5386"}}, "geometry": {"type": "Point", "coordinates": [120.36890664268127, 0.007026596749943431]}}, {"type": "Feature", "properties": {"norad_id": 54244, "name": "GALAXY 32 (G-32)", "group": "intelsat", "lat": 0.021847879318686352, "lon": 150.37085347763784, "alt_km": 35794.25486407999, "timestamp": "2025-12-25T09:48:51.954188+00:00", "meta": {"OBJECT_NAME": "GALAXY 32 (G-32)", "OBJECT_ID": "2022-153B", "EPOCH": "2025-12-24T09:22:58.424736", "MEAN_MOTION": 1.00271076, "ECCENTRICITY": 0.00019303, "INCLINATION": 0.0094, "RA_OF_ASC_NODE": 17.9, "ARG_OF_PERICENTER": 299.4695, "MEAN_ANOMALY": 185.5393, "EPHEMERIS_TYPE": 0, "CLASSIFICATION_TYPE": "U", "NORAD_CAT_ID": 54244, "ELEMENT_SET_NO": 999, "REV_AT_EPOCH": 1139, "BSTAR": 0, "MEAN_MOTION_DOT": -1.53e-06, "MEAN_MOTION_DDOT": 0}, "tle": {"line1": "1 54244U 22153B   25358.39095399 -.00000153  00000+0  00000+0 0  9990", "line2": "2 54244   0.0094  17.9000 0001930 299.4695 185.5393  1.00271076 11390"}}, "geometry": {"type": "Point", "coordinates": [150.37085347763784, 0.021847879318686352]}}, {"type": "Feature", "properties": {"norad_id": 54741, "name": "GALAXY 35 (G-35)", "group": "intelsat", "lat": -0.0012885595085122936, "lon": 148.26552040922792, "alt_km": 35792.20968272468, "timestamp": "2025-12-25T09:48:51.954200+00:00", "meta": {"OBJECT_NAME": "GALAXY 35 (G-35)", "OBJECT_ID": "2022-170A", "EPOCH": "2025-12-24T19:30:19.264608", "MEAN_MOTION": 1.00271233, "ECCENTRICITY": 0.00023038, "INCLINATION": 0.0293, "RA_OF_ASC_NODE": 245.853, "ARG_OF_PERICENTER": 29.9722, "MEAN_ANOMALY": 17.2453, "EPHEMERIS_TYPE": 0, "CLASSIFICATION_TYPE": "U", "NORAD_CAT_ID": 54741, "ELEMENT_SET_NO": 999, "REV_AT_EPOCH": 1114, "BSTAR": 0, "MEAN_MOTION_DOT": -1.41e-06, "MEAN_MOTION_DDOT": 0}, "tle": {"line1": "1 54741U 22170A   25358.81272297 -.00000141  00000+0  00000+0 0  9999", "line2": "2 54741   0.0293 245.8530 0002303  29.9722  17.2453  1.00271233 11141"}}, "geometry": {"type": "Point", "coordinates": [148.26552040922792, -0.0012885595085122936]}}, {"type": "Feature", "properties": {"norad_id": 54742, "name": "GALAXY 36 (G-36)", "group": "intelsat", "lat": 0.019578217621101353, "lon": 152.38775529814495, "alt_km": 35787.36333027028, "timestamp": "2025-12-25T09:48:51.954211+00:00", "meta": {"OBJECT_NAME": "GALAXY 36 (G-36)", "OBJECT_ID": "2022-170B", "EPOCH": "2025-12-24T19:31:26.656608", "MEAN_MOTION": 1.00272338, "ECCENTRICITY": 3.4e-05, "INCLINATION": 0.0115, "RA_OF_ASC_NODE": 80.8089, "ARG_OF_PERICENTER": 262.5757, "MEAN_ANOMALY": 314.0656, "EPHEMERIS_TYPE": 0, "CLASSIFICATION_TYPE": "U", "NORAD_CAT_ID": 54742, "ELEMENT_SET_NO": 999, "REV_AT_EPOCH": 1102, "BSTAR": 0, "MEAN_MOTION_DOT": -1.64e-06, "MEAN_MOTION_DDOT": 0}, "tle": {"line1": "1 54742U 22170B   25358.81350297 -.00000164  00000+0  00000+0 0  9992", "line2": "2 54742   0.0115  80.8089 0000340 262.5757 314.0656  1.00272338 11020"}}, "geometry": {"type": "Point", "coordinates": [152.38775529814495, 0.019578217621101353]}}, {"type": "Feature", "properties": {"norad_id": 57493, "name": "GALAXY 37 (G-37)", "group": "intelsat", "lat": 0.037004512848596204, "lon": 114.36361215607965, "alt_km": 35794.47223918408, "timestamp": "2025-12-25T09:48:51.954222+00:00", "meta": {"OBJECT_NAME": "GALAXY 37 (G-37)", "OBJECT_ID": "2023-112A", "EPOCH": "2025-12-24T17:37:52.532256", "MEAN_MOTION": 1.00271631, "ECCENTRICITY": 0.00020764, "INCLINATION": 0.0166, "RA_OF_ASC_NODE": 13.7195, "ARG_OF_PERICENTER": 263.5118, "MEAN_ANOMALY": 313.7338, "EPHEMERIS_TYPE": 0, "CLASSIFICATION_TYPE": "U", "NORAD_CAT_ID": 57493, "ELEMENT_SET_NO": 999, "REV_AT_EPOCH": 879, "BSTAR": 0, "MEAN_MOTION_DOT": 6.9e-07, "MEAN_MOTION_DDOT": 0}, "tle": {"line1": "1 57493U 23112A   25358.73463579  .00000069  00000+0  00000+0 0  9997", "line2": "2 57493   0.0166  13.7195 0002076 263.5118 313.7338  1.00271631  8793"}}, "geometry": {"type": "Point", "coordinates": [114.36361215607965, 0.037004512848596204]}}]}